IRIDIUM 155             
1 43573U 18061E   24253.68252810  .00000028  00000+0  30709-5 0  9999
2 43573  86.3999 326.4567 0001954  95.6811 264.4607 14.34217557320845
IRIDIUM 154             
1 43574U 18061F   24253.59373123  .00000168  00000+0  53080-4 0  9992
2 43574  86.4001 326.5950 0002257  92.4695 267.6759 14.34218630320879
IRIDIUM 163             
1 43575U 18061G   24253.50493589  .00000209  00000+0  67695-4 0  9996
2 43575  86.4000 326.5682 0002083  92.7028 267.4406 14.34216637320839
IRIDIUM 156             
1 43576U 18061H   24253.47956488  .00000236  00000+0  77236-4 0  9997
2 43576  86.4000 326.5855 0002012 102.5011 257.6410 14.34217142320823
IRIDIUM 164             
1 43577U 18061J   24253.60007472  .00000234  00000+0  76607-4 0  9992
2 43577  86.4000 326.5651 0002338  95.6420 264.5042 14.34216701320889
IRIDIUM 159             
1 43578U 18061K   24253.56836137  .00000837  00000+0  29189-3 0  9997
2 43578  86.4000 326.5287 0002147  96.0531 264.0909 14.34218494320845
IRIDIUM 180             
1 43922U 19002A   24253.56785155  .00000024  00000+0  16041-5 0  9992
2 43922  86.3907 263.3712 0002395  89.1145 271.0326 14.34216145296454
IRIDIUM 176             
1 43923U 19002B   24253.53370777  .00001528  00000+0  23840-3 0  9993
2 43923  86.6035 263.4002 0002559  91.0185 269.1325 14.72257429304258
IRIDIUM 168             
1 43924U 19002C   24253.56151623 -.00000025  00000+0 -15939-4 0  9998
2 43924  86.3910 263.4328 0002225  90.7308 269.4143 14.34217109296432
IRIDIUM 173             
1 43925U 19002D   24253.75813508 -.00000051  00000+0 -25193-4 0  9999
2 43925  86.3906 263.2660 0002210  88.0774 272.0675 14.34217115296455
IRIDIUM 169             
1 43926U 19002E   24253.56603364  .00001193  00000+0  38366-3 0  9997
2 43926  86.4192 294.9967 0001556  36.2526 323.8777 14.38609353297404
IRIDIUM 172             
1 43927U 19002F   24253.54248562  .00000009  00000+0 -39606-5 0  9997
2 43927  86.3906 263.3620 0002097  92.3601 267.7835 14.34217298296422
IRIDIUM 175             
1 43928U 19002G   24253.46020395  .00001940  00000+0  30359-3 0  9999
2 43928  86.1490 231.8160 0002290  89.4691 270.6788 14.72267258304231
IRIDIUM 171             
1 43929U 19002H   24253.52345084  .00000086  00000+0  23791-4 0  9995
2 43929  86.3913 263.6052 0002228  97.9716 262.1733 14.34216830296414
IRIDIUM 170             
1 43930U 19002J   24253.47192462  .00001546  00000+0  24120-3 0  9999
2 43930  86.6036 263.4314 0002523  89.7274 270.4232 14.72257354304256
IRIDIUM 167             
1 43931U 19002K   24253.51711678  .00000017  00000+0 -10179-5 0  9995
2 43931  86.3907 263.3896 0002196  94.0738 266.0709 14.34217796296417
IRIDIUM 181             
1 56726U 23068S   24253.74260835  .00001480  00000+0  43135-3 0  9997
2 56726  86.8654 321.1679 0002055 102.4832 257.6599 14.43587005 69337
IRIDIUM 177             
1 56727U 23068T   24253.59190621  .00001918  00000+0  24893-3 0  9992
2 56727  86.1920 275.2772 0001851  96.3932 263.7500 14.80240043 70864
IRIDIUM 174             
1 56728U 23068U   24253.58644071  .00001818  00000+0  23578-3 0  9993
2 56728  86.1928 275.3904 0001906 101.1916 258.9519 14.80235567 70860
IRIDIUM 178             
1 56729U 23068V   24253.58111631  .00004589  00000+0  60002-3 0  9996
2 56729  86.5751 296.8709 0002335 103.0112 257.1370 14.80258042 70865
IRIDIUM 179             
1 56730U 23068W   24253.57585043  .00004632  00000+0  60544-3 0  9999
2 56730  86.6767 302.0741 0001993  92.8098 267.3352 14.80272318 70863
